XRISM                   
1 57800U 23137A   24235.89988528  .00009850  00000+0  72263-3 0  9993
2 57800  31.0030 307.6795 0009870 149.2104 210.9112 15.02218862 52649
